[{"OBJECT_NAME":"STARLINK-34806","OBJECT_ID":"2025-165K","EPOCH":"2026-03-09T22:28:33.330432","MEAN_MOTION":15.05665154,"ECCENTRICITY":3.883e-5,"INCLINATION":97.602,"RA_OF_ASC_NODE":147.412,"ARG_OF_PERICENTER":127.2294,"MEAN_ANOMALY":232.8968,"EPHEMERIS_TYPE":0,"CLASSIFICATION_TYPE":"U","NORAD_CAT_ID":65065,"ELEMENT_SET_NO":999,"REV_AT_EPOCH":3482,"BSTAR":0.00069838759,"MEAN_MOTION_DOT":0.00010035,"MEAN_MOTION_DDOT":0},{"OBJECT_NAME":"SL-24 DEB","OBJECT_ID":"2007-028C","EPOCH":"2026-03-09T19:18:34.668288","MEAN_MOTION":13.26386106,"ECCENTRICITY":0.08142909,"INCLINATION":64.528,"RA_OF_ASC_NODE":235.2459,"ARG_OF_PERICENTER":100.7313,"MEAN_ANOMALY":268.6376,"EPHEMERIS_TYPE":0,"CLASSIFICATION_TYPE":"U","NORAD_CAT_ID":31791,"ELEMENT_SET_NO":999,"REV_AT_EPOCH":90482,"BSTAR":0.00011847102,"MEAN_MOTION_DOT":2.38e-6,"MEAN_MOTION_DDOT":0}]
